[{"OBJECT_NAME":"SWISSCUBE","OBJECT_ID":"2009-051B","EPOCH":"2026-03-09T16:23:13.335936","MEAN_MOTION":14.62259637,"ECCENTRICITY":0.00070545,"INCLINATION":98.4094,"RA_OF_ASC_NODE":334.8256,"ARG_OF_PERICENTER":152.7663,"MEAN_ANOMALY":207.3909,"EPHEMERIS_TYPE":0,"CLASSIFICATION_TYPE":"U","NORAD_CAT_ID":35932,"ELEMENT_SET_NO":999,"REV_AT_EPOCH":87461,"BSTAR":0.00032657986,"MEAN_MOTION_DOT":1.598e-5,"MEAN_MOTION_DDOT":0},{"OBJECT_NAME":"CZ-4B DEB","OBJECT_ID":"2013-057C","EPOCH":"2026-03-09T09:32:06.535968","MEAN_MOTION":14.59124108,"ECCENTRICITY":0.01737289,"INCLINATION":75.0488,"RA_OF_ASC_NODE":75.5028,"ARG_OF_PERICENTER":23.1031,"MEAN_ANOMALY":337.7829,"EPHEMERIS_TYPE":0,"CLASSIFICATION_TYPE":"U","NORAD_CAT_ID":40530,"ELEMENT_SET_NO":999,"REV_AT_EPOCH":57781,"BSTAR":0.0012357607,"MEAN_MOTION_DOT":7.166e-5,"MEAN_MOTION_DDOT":0}]
